{"type": "FeatureCollection", "features": [ {"type": "Feature", "properties": {"norad_id": 54234, "name": "NOAA 21 (JPSS-2)", "group": "weather", "lat": 56.05171166186678, "lon": 129.52338908932532, "alt_km": 822.0113633295259, "timestamp": "2025-12-26T03:50:11.730273+00:00", "meta": {"OBJECT_NAME": "NOAA 21 (JPSS-2)", "OBJECT_ID": "2022-150A", "EPOCH": "2025-12-25T18:48:05.685696", "MEAN_MOTION": 14.19527642, "ECCENTRICITY": 0.0001616, "INCLINATION": 98.7478, "RA_OF_ASC_NODE": 295.9299, "ARG_OF_PERICENTER": 10.9996, "MEAN_ANOMALY": 349.1215, "EPHEMERIS_TYPE": 0, "CLASSIFICATION_TYPE": "U", "NORAD_CAT_ID": 54234, "ELEMENT_SET_NO": 999, "REV_AT_EPOCH": 16194, "BSTAR": 6.8925e-05, "MEAN_MOTION_DOT": 1.01e-06, "MEAN_MOTION_DDOT": 0}, "tle": {"line1": "1 54234U 22150A   25359.78339914  .00000101  00000+0  68925-4 0  9991", "line2": "2 54234  98.7478 295.9299 0001616  10.9996 349.1215 14.19527642161943"}}, "geometry": {"type": "Point", "coordinates": [129.52338908932532, 56.05171166186678]}}, {"type": "Feature", "properties": {"norad_id": 54743, "name": "METEOSAT-12 (MTG-I1)", "group": "weather", "lat": 0.5766415283253528, "lon": 152.11178837306664, "alt_km": 35789.24009037034, "timestamp": "2025-12-26T03:50:11.730285+00:00", "meta": {"OBJECT_NAME": "METEOSAT-12 (MTG-I1)", "OBJECT_ID": "2022-170C", "EPOCH": "2025-12-25T18:12:05.168160", "MEAN_MOTION": 1.00270902, "ECCENTRICITY": 0.0001669, "INCLINATION": 0.7004, "RA_OF_ASC_NODE": 25.7581, "ARG_OF_PERICENTER": 241.4183, "MEAN_ANOMALY": 100.0355, "EPHEMERIS_TYPE": 0, "CLASSIFICATION_TYPE": "U", "NORAD_CAT_ID": 54743, "ELEMENT_SET_NO": 999, "REV_AT_EPOCH": 1123, "BSTAR": 0, "MEAN_MOTION_DOT": 1.4e-07, "MEAN_MOTION_DDOT": 0}, "tle": {"line1": "1 54743U 22170C   25359.75839315  .00000014  00000+0  00000+0 0  9993", "line2": "2 54743   0.7004  25.7581 0001669 241.4183 100.0355  1.00270902 11231"}}, "geometry": {"type": "Point", "coordinates": [152.11178837306664, 0.5766415283253528]}}, {"type": "Feature", "properties": {"norad_id": 55973, "name": "TIANMU-1 03", "group": "weather", "lat": 26.498821684913093, "lon": -13.038409505544374, "alt_km": 443.06402763286223, "timestamp": "2025-12-26T03:50:11.730296+00:00", "meta": {"OBJECT_NAME": "TIANMU-1 03", "OBJECT_ID": "2023-039A", "EPOCH": "2025-12-25T19:23:01.901760", "MEAN_MOTION": 15.41305152, "ECCENTRICITY": 0.0003752, "INCLINATION": 97.5115, "RA_OF_ASC_NODE": 162.8275, "ARG_OF_PERICENTER": 22.6695, "MEAN_ANOMALY": 337.4716, "EPHEMERIS_TYPE": 0, "CLASSIFICATION_TYPE": "U", "NORAD_CAT_ID": 55973, "ELEMENT_SET_NO": 999, "REV_AT_EPOCH": 15407, "BSTAR": 0.00040239, "MEAN_MOTION_DOT": 0.00016692, "MEAN_MOTION_DDOT": 0}, "tle": {"line1": "1 55973U 23039A   25359.80766090  .00016692  00000+0  40239-3 0  9990", "line2": "2 55973  97.5115 162.8275 0003752  22.6695 337.4716 15.41305152154072"}}, "geometry": {"type": "Point", "coordinates": [-13.038409505544374, 26.498821684913093]}}, {"type": "Feature", "properties": {"norad_id": 55974, "name": "TIANMU-1 04", "group": "weather", "lat": -74.65419780788608, "lon": -168.91444697339992, "alt_km": 448.5947965933465, "timestamp": "2025-12-26T03:50:11.730306+00:00", "meta": {"OBJECT_NAME": "TIANMU-1 04", "OBJECT_ID": "2023-039B", "EPOCH": "2025-12-25T20:22:45.499008", "MEAN_MOTION": 15.41650471, "ECCENTRICITY": 0.0004337, "INCLINATION": 97.5047, "RA_OF_ASC_NODE": 162.056, "ARG_OF_PERICENTER": 15.6017, "MEAN_ANOMALY": 344.5363, "EPHEMERIS_TYPE": 0, "CLASSIFICATION_TYPE": "U", "NORAD_CAT_ID": 55974, "ELEMENT_SET_NO": 999, "REV_AT_EPOCH": 15408, "BSTAR": 0.00038512, "MEAN_MOTION_DOT": 0.00016156, "MEAN_MOTION_DDOT": 0}, "tle": {"line1": "1 55974U 23039B   25359.84913772  .00016156  00000+0  38512-3 0  9992", "line2": "2 55974  97.5047 162.0560 0004337  15.6017 344.5363 15.41650471154081"}}, "geometry": {"type": "Point", "coordinates": [-168.91444697339992, -74.65419780788608]}}, {"type": "Feature", "properties": {"norad_id": 55975, "name": "TIANMU-1 05", "group": "weather", "lat": -62.23209909919893, "lon": 177.37718613808948, "alt_km": 450.20685148638677, "timestamp": "2025-12-26T03:50:11.730372+00:00", "meta": {"OBJECT_NAME": "TIANMU-1 05", "OBJECT_ID": "2023-039C", "EPOCH": "2025-12-25T20:19:10.033824", "MEAN_MOTION": 15.41263059, "ECCENTRICITY": 0.0003883, "INCLINATION": 97.5093, "RA_OF_ASC_NODE": 162.5462, "ARG_OF_PERICENTER": 42.039, "MEAN_ANOMALY": 318.1154, "EPHEMERIS_TYPE": 0, "CLASSIFICATION_TYPE": "U", "NORAD_CAT_ID": 55975, "ELEMENT_SET_NO": 999, "REV_AT_EPOCH": 15406, "BSTAR": 0.00038177, "MEAN_MOTION_DOT": 0.00015808, "MEAN_MOTION_DDOT": 0}, "tle": {"line1": "1 55975U 23039C   25359.84664391  .00015808  00000+0  38177-3 0  9993", "line2": "2 55975  97.5093 162.5462 0003883  42.0390 318.1154 15.41263059154067"}}, "geometry": {"type": "Point", "coordinates": [177.37718613808948, -62.23209909919893]}}, {"type": "Feature", "properties": {"norad_id": 55976, "name": "TIANMU-1 06", "group": "weather", "lat": -81.54158633444649, "lon": -134.13518173938346, "alt_km": 449.8679026235359, "timestamp": "2025-12-26T03:50:11.730387+00:00", "meta": {"OBJECT_NAME": "TIANMU-1 06", "OBJECT_ID": "2023-039D", "EPOCH": "2025-12-25T20:25:15.549888", "MEAN_MOTION": 15.41701653, "ECCENTRICITY": 0.0004139, "INCLINATION": 97.5104, "RA_OF_ASC_NODE": 163.0266, "ARG_OF_PERICENTER": 35.8337, "MEAN_ANOMALY": 324.3187, "EPHEMERIS_TYPE": 0, "CLASSIFICATION_TYPE": "U", "NORAD_CAT_ID": 55976, "ELEMENT_SET_NO": 999, "REV_AT_EPOCH": 15408, "BSTAR": 0.00038385, "MEAN_MOTION_DOT": 0.00016129, "MEAN_MOTION_DDOT": 0}, "tle": {"line1": "1 55976U 23039D   25359.85087442  .00016129  00000+0  38385-3 0  9999", "line2": "2 55976  97.5104 163.0266 0004139  35.8337 324.3187 15.41701653154089"}}, "geometry": {"type": "Point", "coordinates": [-134.13518173938346, -81.54158633444649]}}, {"type": "Feature", "properties": {"norad_id": 56232, "name": "FENGYUN 3G", "group": "weather", "lat": -24.8055233057074, "lon": 135.35382605590962, "alt_km": 411.44950979580426, "timestamp": "2025-12-26T03:50:11.730401+00:00", "meta": {"OBJECT_NAME": "FENGYUN 3G", "OBJECT_ID": "2023-055A", "EPOCH": "2025-12-25T20:15:13.028256", "MEAN_MOTION": 15.52095012, "ECCENTRICITY": 0.0003941, "INCLINATION": 49.993, "RA_OF_ASC_NODE": 159.8234, "ARG_OF_PERICENTER": 292.0602, "MEAN_ANOMALY": 67.9946, "EPHEMERIS_TYPE": 0, "CLASSIFICATION_TYPE": "U", "NORAD_CAT_ID": 56232, "ELEMENT_SET_NO": 999, "REV_AT_EPOCH": 15306, "BSTAR": 0.00050019, "MEAN_MOTION_DOT": 0.00030466, "MEAN_MOTION_DDOT": 0}, "tle": {"line1": "1 56232U 23055A   25359.84390079  .00030466  00000+0  50019-3 0  9993", "line2": "2 56232  49.9930 159.8234 0003941 292.0602  67.9946 15.52095012153060"}}, "geometry": {"type": "Point", "coordinates": [135.35382605590962, -24.8055233057074]}}, {"type": "Feature", "properties": {"norad_id": 57166, "name": "METEOR-M2 3", "group": "weather", "lat": -65.02606795332451, "lon": -145.58101420150535, "alt_km": 818.5686935044914, "timestamp": "2025-12-26T03:50:11.730413+00:00", "meta": {"OBJECT_NAME": "METEOR-M2 3", "OBJECT_ID": "2023-091A", "EPOCH": "2025-12-25T19:56:14.280576", "MEAN_MOTION": 14.24027608, "ECCENTRICITY": 0.000322, "INCLINATION": 98.6361, "RA_OF_ASC_NODE": 53.1403, "ARG_OF_PERICENTER": 327.7215, "MEAN_ANOMALY": 32.3767, "EPHEMERIS_TYPE": 0, "CLASSIFICATION_TYPE": "U", "NORAD_CAT_ID": 57166, "ELEMENT_SET_NO": 999, "REV_AT_EPOCH": 12984, "BSTAR": 2.0119e-05, "MEAN_MOTION_DOT": 3e-08, "MEAN_MOTION_DDOT": 0}, "tle": {"line1": "1 57166U 23091A   25359.83072084  .00000003  00000+0  20119-4 0  9995", "line2": "2 57166  98.6361  53.1403 0003220 327.7215  32.3767 14.24027608129846"}}, "geometry": {"type": "Point", "coordinates": [-145.58101420150535, -65.02606795332451]}}, {"type": "Feature", "properties": {"norad_id": 57399, "name": "TIANMU-1 07", "group": "weather", "lat": 55.29320889788574, "lon": 39.06896105650759, "alt_km": 472.4378674034897, "timestamp": "2025-12-26T03:50:11.730423+00:00", "meta": {"OBJECT_NAME": "TIANMU-1 07", "OBJECT_ID": "2023-101A", "EPOCH": "2025-12-25T19:44:08.193120", "MEAN_MOTION": 15.28255999, "ECCENTRICITY": 0.0004965, "INCLINATION": 97.2855, "RA_OF_ASC_NODE": 49.3834, "ARG_OF_PERICENTER": 47.7551, "MEAN_ANOMALY": 312.411, "EPHEMERIS_TYPE": 0, "CLASSIFICATION_TYPE": "U", "NORAD_CAT_ID": 57399, "ELEMENT_SET_NO": 999, "REV_AT_EPOCH": 13515, "BSTAR": 0.00029554, "MEAN_MOTION_DOT": 8.067e-05, "MEAN_MOTION_DDOT": 0}, "tle": {"line1": "1 57399U 23101A   25359.82231705  .00008067  00000+0  29554-3 0  9990", "line2": "2 57399  97.2855  49.3834 0004965  47.7551 312.4110 15.28255999135157"}}, "geometry": {"type": "Point", "coordinates": [39.06896105650759, 55.29320889788574]}}, {"type": "Feature", "properties": {"norad_id": 57400, "name": "TIANMU-1 08", "group": "weather", "lat": -56.275274115714936, "lon": -141.53840042324225, "alt_km": 492.81646155886665, "timestamp": "2025-12-26T03:50:11.730433+00:00", "meta": {"OBJECT_NAME": "TIANMU-1 08", "OBJECT_ID": "2023-101B", "EPOCH": "2025-12-25T20:31:02.597952", "MEAN_MOTION": 15.28237805, "ECCENTRICITY": 0.0006897, "INCLINATION": 97.2844, "RA_OF_ASC_NODE": 49.2109, "ARG_OF_PERICENTER": 46.5051, "MEAN_ANOMALY": 313.6761, "EPHEMERIS_TYPE": 0, "CLASSIFICATION_TYPE": "U", "NORAD_CAT_ID": 57400, "ELEMENT_SET_NO": 999, "REV_AT_EPOCH": 13515, "BSTAR": 0.00026756, "MEAN_MOTION_DOT": 7.294e-05, "MEAN_MOTION_DDOT": 0}, "tle": {"line1": "1 57400U 23101B   25359.85489118  .00007294  00000+0  26756-3 0  9991", "line2": "2 57400  97.2844  49.2109 0006897  46.5051 313.6761 15.28237805135151"}}, "geometry": {"type": "Point", "coordinates": [-141.53840042324225, -56.275274115714936]}}]}